[{"OBJECT_NAME":"CO3D 3","OBJECT_ID":"2025-156B","EPOCH":"2026-03-09T20:39:54.878112","MEAN_MOTION":15.20200878,"ECCENTRICITY":0.00015298,"INCLINATION":97.4328,"RA_OF_ASC_NODE":148.9798,"ARG_OF_PERICENTER":138.8545,"MEAN_ANOMALY":221.2806,"EPHEMERIS_TYPE":0,"CLASSIFICATION_TYPE":"U","NORAD_CAT_ID":64900,"ELEMENT_SET_NO":999,"REV_AT_EPOCH":3444,"BSTAR":0.00013866013,"MEAN_MOTION_DOT":2.935e-5,"MEAN_MOTION_DDOT":0},{"OBJECT_NAME":"FENGYUN 1C DEB","OBJECT_ID":"1999-025AVN","EPOCH":"2026-03-09T06:31:52.647168","MEAN_MOTION":14.79109319,"ECCENTRICITY":0.02015641,"INCLINATION":98.3743,"RA_OF_ASC_NODE":183.7423,"ARG_OF_PERICENTER":262.0182,"MEAN_ANOMALY":126.1893,"EPHEMERIS_TYPE":0,"CLASSIFICATION_TYPE":"U","NORAD_CAT_ID":30828,"ELEMENT_SET_NO":999,"REV_AT_EPOCH":99935,"BSTAR":0.0012364743,"MEAN_MOTION_DOT":0.00012875,"MEAN_MOTION_DDOT":0}]
